{
  "type": "FeatureCollection",
  "features": [
    {
      "type": "Feature",
      "properties": {
        "norad_id": 40890,
        "name": "GSAT0206 (GALILEO 10)",
        "group": "galileo",
        "lat": NaN,
        "lon": NaN,
        "alt_km": NaN,
        "timestamp": "2025-12-01T03:03:41.147775+00:00",
        "meta": {
          "OBJECT_NAME": "GSAT0206 (GALILEO 10)",
          "OBJECT_ID": "2015-045B",
          "EPOCH": "2025-11-28T20:17:33.194976",
          "MEAN_MOTION": 1.70472951,
          "ECCENTRICITY": 0.00035605,
          "INCLINATION": 55.0075,
          "RA_OF_ASC_NODE": 227.1375,
          "ARG_OF_PERICENTER": 32.1082,
          "MEAN_ANOMALY": 327.9865,
          "EPHEMERIS_TYPE": 0,
          "CLASSIFICATION_TYPE": "U",
          "NORAD_CAT_ID": 40890,
          "ELEMENT_SET_NO": 999,
          "REV_AT_EPOCH": 6362,
          "BSTAR": 0,
          "MEAN_MOTION_DOT": 2.6e-07,
          "MEAN_MOTION_DDOT": 0
        }
      },
      "geometry": {
        "type": "Point",
        "coordinates": [
          NaN,
          NaN
        ]
      }
    },
    {
      "type": "Feature",
      "properties": {
        "norad_id": 41174,
        "name": "GSAT0209 (GALILEO 12)",
        "group": "galileo",
        "lat": NaN,
        "lon": NaN,
        "alt_km": NaN,
        "timestamp": "2025-12-01T03:03:41.147785+00:00",
        "meta": {
          "OBJECT_NAME": "GSAT0209 (GALILEO 12)",
          "OBJECT_ID": "2015-079A",
          "EPOCH": "2025-11-29T00:19:48.752544",
          "MEAN_MOTION": 1.70474337,
          "ECCENTRICITY": 0.00023288,
          "INCLINATION": 55.7045,
          "RA_OF_ASC_NODE": 106.7579,
          "ARG_OF_PERICENTER": 359.5232,
          "MEAN_ANOMALY": 0.4568,
          "EPHEMERIS_TYPE": 0,
          "CLASSIFICATION_TYPE": "U",
          "NORAD_CAT_ID": 41174,
          "ELEMENT_SET_NO": 999,
          "REV_AT_EPOCH": 6136,
          "BSTAR": 0,
          "MEAN_MOTION_DOT": 5.4e-07,
          "MEAN_MOTION_DDOT": 0
        }
      },
      "geometry": {
        "type": "Point",
        "coordinates": [
          NaN,
          NaN
        ]
      }
    },
    {
      "type": "Feature",
      "properties": {
        "norad_id": 41175,
        "name": "GSAT0208 (GALILEO 11)",
        "group": "galileo",
        "lat": NaN,
        "lon": NaN,
        "alt_km": NaN,
        "timestamp": "2025-12-01T03:03:41.147790+00:00",
        "meta": {
          "OBJECT_NAME": "GSAT0208 (GALILEO 11)",
          "OBJECT_ID": "2015-079B",
          "EPOCH": "2025-11-30T09:46:10.644960",
          "MEAN_MOTION": 1.70474193,
          "ECCENTRICITY": 0.00018872,
          "INCLINATION": 55.7038,
          "RA_OF_ASC_NODE": 106.7167,
          "ARG_OF_PERICENTER": 11.7228,
          "MEAN_ANOMALY": 348.2564,
          "EPHEMERIS_TYPE": 0,
          "CLASSIFICATION_TYPE": "U",
          "NORAD_CAT_ID": 41175,
          "ELEMENT_SET_NO": 999,
          "REV_AT_EPOCH": 6180,
          "BSTAR": 0,
          "MEAN_MOTION_DOT": 4.8e-07,
          "MEAN_MOTION_DDOT": 0
        }
      },
      "geometry": {
        "type": "Point",
        "coordinates": [
          NaN,
          NaN
        ]
      }
    },
    {
      "type": "Feature",
      "properties": {
        "norad_id": 41549,
        "name": "GSAT0211 (GALILEO 14)",
        "group": "galileo",
        "lat": NaN,
        "lon": NaN,
        "alt_km": NaN,
        "timestamp": "2025-12-01T03:03:41.147798+00:00",
        "meta": {
          "OBJECT_NAME": "GSAT0211 (GALILEO 14)",
          "OBJECT_ID": "2016-030A",
          "EPOCH": "2025-11-28T18:30:37.119744",
          "MEAN_MOTION": 1.70472998,
          "ECCENTRICITY": 0.00037617,
          "INCLINATION": 55.1573,
          "RA_OF_ASC_NODE": 227.2083,
          "ARG_OF_PERICENTER": 3.3414,
          "MEAN_ANOMALY": 356.7341,
          "EPHEMERIS_TYPE": 0,
          "CLASSIFICATION_TYPE": "U",
          "NORAD_CAT_ID": 41549,
          "ELEMENT_SET_NO": 999,
          "REV_AT_EPOCH": 5925,
          "BSTAR": 0,
          "MEAN_MOTION_DOT": 2.6e-07,
          "MEAN_MOTION_DDOT": 0
        }
      },
      "geometry": {
        "type": "Point",
        "coordinates": [
          NaN,
          NaN
        ]
      }
    },
    {
      "type": "Feature",
      "properties": {
        "norad_id": 41550,
        "name": "GSAT0210 (GALILEO 13)",
        "group": "galileo",
        "lat": NaN,
        "lon": NaN,
        "alt_km": NaN,
        "timestamp": "2025-12-01T03:03:41.147804+00:00",
        "meta": {
          "OBJECT_NAME": "GSAT0210 (GALILEO 13)",
          "OBJECT_ID": "2016-030B",
          "EPOCH": "2025-11-29T00:41:21.723360",
          "MEAN_MOTION": 1.70473428,
          "ECCENTRICITY": 0.00012825,
          "INCLINATION": 55.1566,
          "RA_OF_ASC_NODE": 227.1992,
          "ARG_OF_PERICENTER": 243.2248,
          "MEAN_ANOMALY": 116.8349,
          "EPHEMERIS_TYPE": 0,
          "CLASSIFICATION_TYPE": "U",
          "NORAD_CAT_ID": 41550,
          "ELEMENT_SET_NO": 999,
          "REV_AT_EPOCH": 5925,
          "BSTAR": 0,
          "MEAN_MOTION_DOT": 2.6e-07,
          "MEAN_MOTION_DDOT": 0
        }
      },
      "geometry": {
        "type": "Point",
        "coordinates": [
          NaN,
          NaN
        ]
      }
    },
    {
      "type": "Feature",
      "properties": {
        "norad_id": 41859,
        "name": "GSAT0207 (GALILEO 15)",
        "group": "galileo",
        "lat": NaN,
        "lon": NaN,
        "alt_km": NaN,
        "timestamp": "2025-12-01T03:03:41.147815+00:00",
        "meta": {
          "OBJECT_NAME": "GSAT0207 (GALILEO 15)",
          "OBJECT_ID": "2016-069A",
          "EPOCH": "2025-11-30T11:31:32.297088",
          "MEAN_MOTION": 1.70474248,
          "ECCENTRICITY": 0.000206,
          "INCLINATION": 55.375,
          "RA_OF_ASC_NODE": 106.5899,
          "ARG_OF_PERICENTER": 325.7449,
          "MEAN_ANOMALY": 34.2162,
          "EPHEMERIS_TYPE": 0,
          "CLASSIFICATION_TYPE": "U",
          "NORAD_CAT_ID": 41859,
          "ELEMENT_SET_NO": 999,
          "REV_AT_EPOCH": 5601,
          "BSTAR": 0,
          "MEAN_MOTION_DOT": 4.7e-07,
          "MEAN_MOTION_DDOT": 0
        }
      },
      "geometry": {
        "type": "Point",
        "coordinates": [
          NaN,
          NaN
        ]
      }
    },
    {
      "type": "Feature",
      "properties": {
        "norad_id": 41860,
        "name": "GSAT0212 (GALILEO 16)",
        "group": "galileo",
        "lat": NaN,
        "lon": NaN,
        "alt_km": NaN,
        "timestamp": "2025-12-01T03:03:41.147820+00:00",
        "meta": {
          "OBJECT_NAME": "GSAT0212 (GALILEO 16)",
          "OBJECT_ID": "2016-069B",
          "EPOCH": "2025-11-29T03:51:29.490336",
          "MEAN_MOTION": 1.70474484,
          "ECCENTRICITY": 0.0002283,
          "INCLINATION": 55.3717,
          "RA_OF_ASC_NODE": 106.6219,
          "ARG_OF_PERICENTER": 36.1467,
          "MEAN_ANOMALY": 323.8485,
          "EPHEMERIS_TYPE": 0,
          "CLASSIFICATION_TYPE": "U",
          "NORAD_CAT_ID": 41860,
          "ELEMENT_SET_NO": 999,
          "REV_AT_EPOCH": 5624,
          "BSTAR": 0,
          "MEAN_MOTION_DOT": 5.3e-07,
          "MEAN_MOTION_DDOT": 0
        }
      },
      "geometry": {
        "type": "Point",
        "coordinates": [
          NaN,
          NaN
        ]
      }
    },
    {
      "type": "Feature",
      "properties": {
        "norad_id": 41861,
        "name": "GSAT0213 (GALILEO 17)",
        "group": "galileo",
        "lat": NaN,
        "lon": NaN,
        "alt_km": NaN,
        "timestamp": "2025-12-01T03:03:41.147826+00:00",
        "meta": {
          "OBJECT_NAME": "GSAT0213 (GALILEO 17)",
          "OBJECT_ID": "2016-069C",
          "EPOCH": "2025-11-28T08:31:27.530400",
          "MEAN_MOTION": 1.70474759,
          "ECCENTRICITY": 0.00019722,
          "INCLINATION": 55.3734,
          "RA_OF_ASC_NODE": 106.6518,
          "ARG_OF_PERICENTER": 283.8228,
          "MEAN_ANOMALY": 76.1363,
          "EPHEMERIS_TYPE": 0,
          "CLASSIFICATION_TYPE": "U",
          "NORAD_CAT_ID": 41861,
          "ELEMENT_SET_NO": 999,
          "REV_AT_EPOCH": 5609,
          "BSTAR": 0,
          "MEAN_MOTION_DOT": 5.4e-07,
          "MEAN_MOTION_DDOT": 0
        }
      },
      "geometry": {
        "type": "Point",
        "coordinates": [
          NaN,
          NaN
        ]
      }
    }
  ]
}